1 20253U 89077A   26086.57145887 -.00000379  00000-0  00000+0 0  9999
2 20253  12.4441 351.6533 0008087 356.0581 168.7622  1.00275613259741
1 20776U 90079A   26086.83836415  .00000114  00000-0  00000-0 0  9993
2 20776  13.3662 350.3701 0003424   3.6529 166.3938  1.00272177130076
1 22787U 93056A   26085.95461407  .00000113  00000-0  00000-0 0  9991
2 22787  11.8667   4.0008 0008996 345.0179 207.6864  1.00274358117721
1 23467U 95003A   26086.59003209 -.00000032  00000-0  00000-0 0  9995
2 23467   9.6904  13.4957 0003733 357.2668 199.1647  1.00277049114131
1 23967U 96042A   26085.89280971 -.00000255  00000-0  00000-0 0  9996
2 23967  11.0383  17.5229 0003603  97.6191 359.1814  1.00239610108660
1 25639U 99009B   26086.55917612 -.00000001  00000-0  00000+0 0  9991
2 25639  12.0187   9.5384 0003209 290.0058 301.3497  0.99027553 50342
1 25967U 99063A   26086.68444349 -.00000202  00000-0  00000-0 0  9995
2 25967   9.8388  27.6359 0004628 316.2820  64.6614  1.00268874 96537
1 27168U 02001A   26085.05265647  .00000089  00000-0  00000-0 0  9990
2 27168  11.0820  22.4040 0099817   5.6752 193.4383  1.00278035 32124
1 28117U 03057A   26086.84668419 -.00000117  00000-0  00000-0 0  9992
2 28117   8.8843  34.2165 0003142 315.5109 215.7772  1.00272274 81631
1 30794U 07007B   26086.95903583 -.00000287  00000-0  00000-0 0  9999
2 30794   5.0945  74.7144 0003937 301.8722 249.2451  1.00274183 69884
1 32294U 07056B   26086.55143878  .00000125  00000-0  00000+0 0  9998
2 32294   5.0447  74.4629 0003931 294.8317  39.3177  1.00275895 67374
1 35943U 09054B   26086.85958988  .00000006  00000-0  00000-0 0  9990
2 35943   0.0429  84.5171 0003542 291.4269 181.8073  1.00269494 60496
1 36582U 10021B   26086.93100399  .00000069  00000-0  00000-0 0  9999
2 36582   0.0149 167.4087 0002644 210.2457 156.0274  1.00273030 58149
1 38098U 12011A   26086.92177858 -.00000078  00000-0  00000-0 0  9998
2 38098   0.0214 119.4373 0001718 247.1384 222.6934  1.00271332  6374
1 39034U 12075A   26086.92544611  .00000080  00000-0  00000-0 0  9996
2 39034   0.0689   4.0118 0003663 355.9374 211.2779  1.00272173 48343
1 40296U 14069A   26086.42573530  .00000111  00000-0  00000+0 0  9994
2 40296  63.4571 223.4310 6678556 271.0900  19.1383  2.00582684 83591
1 44453U 19046A   26086.46768328 -.00000055  00000-0  00000-0 0  9997
2 44453  63.0552  61.2454 7050077 274.6310  15.0199  2.00617851 48708
1 45254U 20015A   26085.71581626  .00000007  00000-0  00000-0 0  9992
2 45254  65.5246 327.7745 6885158 279.2909  14.7436  2.00603334 44637
1 52145U 22030A   26086.22363440  .00000222  00000-0  00000+0 0  9995
2 52145  62.6696 149.5738 6763491 272.9247  17.7967  2.00614724 29385
1 26635U 00080A   21013.46269075 0.00000000  00000-0  00000-0 0    09
2 26635   9.2857  29.8038 0014383 186.3086 173.6859  1.00273100    09
1 34810U 09020A   25358.93258989 0.00000000  00000-0  00000-0 0    06
2 34810   2.7881  81.1408 0004972 246.2147 113.7417  1.00270000    08
1 40614U 15022B   25359.93496764 0.00000000  00000-0  00000-0 0    00
2 40614   0.0160 108.2839 0003453 352.8976   7.0980  1.00270000    04
